[{"OBJECT_NAME":"FLOCK 4G-8","OBJECT_ID":"2025-009E","EPOCH":"2026-03-09T17:22:17.546016","MEAN_MOTION":15.27623414,"ECCENTRICITY":0.00030503,"INCLINATION":97.4045,"RA_OF_ASC_NODE":151.2834,"ARG_OF_PERICENTER":315.2538,"MEAN_ANOMALY":44.8455,"EPHEMERIS_TYPE":0,"CLASSIFICATION_TYPE":"U","NORAD_CAT_ID":62613,"ELEMENT_SET_NO":999,"REV_AT_EPOCH":6372,"BSTAR":0.0005043806,"MEAN_MOTION_DOT":0.00013559,"MEAN_MOTION_DDOT":0},{"OBJECT_NAME":"STARLINK-35754","OBJECT_ID":"2025-294AA","EPOCH":"2026-03-09T23:24:33.251904","MEAN_MOTION":15.27592727,"ECCENTRICITY":0.00010505,"INCLINATION":43.0022,"RA_OF_ASC_NODE":36.3933,"ARG_OF_PERICENTER":251.6572,"MEAN_ANOMALY":108.4166,"EPHEMERIS_TYPE":0,"CLASSIFICATION_TYPE":"U","NORAD_CAT_ID":67054,"ELEMENT_SET_NO":999,"REV_AT_EPOCH":1484,"BSTAR":0.00084834963,"MEAN_MOTION_DOT":0.00023165,"MEAN_MOTION_DDOT":0}]
